QIANFAN-17              
1 60395U 24140S   26009.21179371  .00000153  00000+0  21843-3 0  9991
2 60395  88.9791 296.5979 0016152 121.3081 238.9654 13.50983967 71843
QIANFAN-18              
1 60396U 24140T   26009.26526991  .00000163  00000+0  23379-3 0  9998
2 60396  88.9784 296.1240 0015841 105.1670 255.1234 13.50984022 71243
QIANFAN-19              
1 61552U 24185A   26009.24825925  .00000530  00000+0  26997-3 0  9996
2 61552  88.9799  74.7927 0006210 198.0355 162.0612 14.14328531 73557
QIANFAN-20              
1 61553U 24185B   26009.24512068  .00000558  00000+0  31537-3 0  9994
2 61553  88.9799  75.1448 0004132 246.7512 113.3237 14.08876608 73365
QIANFAN-21              
1 61554U 24185C   26009.25241528  .00000645  00000+0  28219-3 0  9996
2 61554  88.9714  73.7602 0008355 272.4771  87.5464 14.22651160 73884
QIANFAN-22              
1 61555U 24185D   26009.21754984  .00000225  00000+0  18336-3 0  9991
2 61555  88.9782  76.2394 0004382 268.9745  91.0924 13.86315059 72741
QIANFAN-23              
1 61556U 24185E   26009.25557085  .00000473  00000+0  23162-3 0  9997
2 61556  88.9791  74.5885 0006485 212.3581 147.7210 14.16323494 73648
QIANFAN-24              
1 61557U 24185F   26009.23191549  .00000720  00000+0  30849-3 0  9990
2 61557  88.9772  73.9512 0008927 194.6903 165.4032 14.23852648 73938
